{
  "type": "FeatureCollection",
  "features": [
    {
      "type": "Feature",
      "properties": {
        "norad_id": 31288,
        "name": "FENGYUN 1C DEB",
        "group": "fengyun-1c-debris",
        "lat": -56.729048109792465,
        "lon": 161.8485482571014,
        "alt_km": 570.7013282481503,
        "timestamp": "2025-12-15T20:48:54.165401+00:00",
        "meta_object_name": "FENGYUN 1C DEB",
        "meta_object_id": "1999-025BNW",
        "meta_epoch": "2025-12-13T23:06:21.203424",
        "meta_mean_motion": 14.95865742,
        "meta_eccentricity": 0.0022809,
        "meta_inclination": 98.7469,
        "meta_ra_of_asc_node": 146.1524,
        "meta_arg_of_pericenter": 293.5174,
        "meta_mean_anomaly": 197.8697,
        "meta_ephemeris_type": 0,
        "meta_classification_type": "U",
        "meta_norad_cat_id": 31288,
        "meta_element_set_no": 999,
        "meta_rev_at_epoch": 97575,
        "meta_bstar": 0.0055635397,
        "meta_mean_motion_dot": 0.00062973,
        "meta_mean_motion_ddot": 0,
        "tle_line1": "1 31288U 99025BNW 25347.96274541  .00062973  00000+0  55635-2 0  9998",
        "tle_line2": "2 31288  98.7469 146.1524 0022809 293.5174 197.8697 14.95865742975753"
      },
      "geometry": {
        "type": "Point",
        "coordinates": [
          161.8485482571014,
          -56.729048109792465
        ]
      }
    },
    {
      "type": "Feature",
      "properties": {
        "norad_id": 31293,
        "name": "FENGYUN 1C DEB",
        "group": "fengyun-1c-debris",
        "lat": -30.82176382848175,
        "lon": 172.4597829304299,
        "alt_km": 712.9473985341674,
        "timestamp": "2025-12-15T20:48:54.165411+00:00",
        "meta_object_name": "FENGYUN 1C DEB",
        "meta_object_id": "1999-025BPB",
        "meta_epoch": "2025-12-14T06:53:58.613280",
        "meta_mean_motion": 14.30813104,
        "meta_eccentricity": 0.01254811,
        "meta_inclination": 98.4229,
        "meta_ra_of_asc_node": 356.0005,
        "meta_arg_of_pericenter": 240.2767,
        "meta_mean_anomaly": 118.5881,
        "meta_ephemeris_type": 0,
        "meta_classification_type": "U",
        "meta_norad_cat_id": 31293,
        "meta_element_set_no": 999,
        "meta_rev_at_epoch": 65266,
        "meta_bstar": 0.00010396078,
        "meta_mean_motion_dot": 2.52e-06,
        "meta_mean_motion_ddot": 0,
        "tle_line1": "1 31293U 99025BPB 25348.28748395  .00000252  00000+0  10396-3 0  9991",
        "tle_line2": "2 31293  98.4229 356.0005 0125481 240.2767 118.5881 14.30813104652664"
      },
      "geometry": {
        "type": "Point",
        "coordinates": [
          172.4597829304299,
          -30.82176382848175
        ]
      }
    },
    {
      "type": "Feature",
      "properties": {
        "norad_id": 31294,
        "name": "FENGYUN 1C DEB",
        "group": "fengyun-1c-debris",
        "lat": 75.49066132826907,
        "lon": -159.14267956348442,
        "alt_km": 879.4467280578574,
        "timestamp": "2025-12-15T20:48:54.165421+00:00",
        "meta_object_name": "FENGYUN 1C DEB",
        "meta_object_id": "1999-025BPC",
        "meta_epoch": "2025-12-14T10:24:15.522336",
        "meta_mean_motion": 14.15316525,
        "meta_eccentricity": 0.00995849,
        "meta_inclination": 98.5431,
        "meta_ra_of_asc_node": 343.9742,
        "meta_arg_of_pericenter": 336.2611,
        "meta_mean_anomaly": 23.3986,
        "meta_ephemeris_type": 0,
        "meta_classification_type": "U",
        "meta_norad_cat_id": 31294,
        "meta_element_set_no": 999,
        "meta_rev_at_epoch": 96877,
        "meta_bstar": 0.00065721489,
        "meta_mean_motion_dot": 1.3e-05,
        "meta_mean_motion_ddot": 0,
        "tle_line1": "1 31294U 99025BPC 25348.43351299  .00001300  00000+0  65721-3 0  9999",
        "tle_line2": "2 31294  98.5431 343.9742 0099584 336.2611  23.3986 14.15316525968771"
      },
      "geometry": {
        "type": "Point",
        "coordinates": [
          -159.14267956348442,
          75.49066132826907
        ]
      }
    },
    {
      "type": "Feature",
      "properties": {
        "norad_id": 31295,
        "name": "FENGYUN 1C DEB",
        "group": "fengyun-1c-debris",
        "lat": -18.91335359082482,
        "lon": -8.367192257858193,
        "alt_km": 868.9154992310878,
        "timestamp": "2025-12-15T20:48:54.165433+00:00",
        "meta_object_name": "FENGYUN 1C DEB",
        "meta_object_id": "1999-025BPD",
        "meta_epoch": "2025-12-14T23:13:44.444064",
        "meta_mean_motion": 13.96833788,
        "meta_eccentricity": 0.00768531,
        "meta_inclination": 98.3167,
        "meta_ra_of_asc_node": 173.6919,
        "meta_arg_of_pericenter": 244.9439,
        "meta_mean_anomaly": 114.3734,
        "meta_ephemeris_type": 0,
        "meta_classification_type": "U",
        "meta_norad_cat_id": 31295,
        "meta_element_set_no": 999,
        "meta_rev_at_epoch": 95534,
        "meta_bstar": 6.762129e-05,
        "meta_mean_motion_dot": 5.8e-07,
        "meta_mean_motion_ddot": 0,
        "tle_line1": "1 31295U 99025BPD 25348.96787551  .00000058  00000+0  67621-4 0  9993",
        "tle_line2": "2 31295  98.3167 173.6919 0076853 244.9439 114.3734 13.96833788955341"
      },
      "geometry": {
        "type": "Point",
        "coordinates": [
          -8.367192257858193,
          -18.91335359082482
        ]
      }
    },
    {
      "type": "Feature",
      "properties": {
        "norad_id": 31296,
        "name": "FENGYUN 1C DEB",
        "group": "fengyun-1c-debris",
        "lat": 55.644444723146314,
        "lon": 98.62713085493515,
        "alt_km": 648.5347157347514,
        "timestamp": "2025-12-15T20:48:54.165443+00:00",
        "meta_object_name": "FENGYUN 1C DEB",
        "meta_object_id": "1999-025BPE",
        "meta_epoch": "2025-12-14T11:37:08.369760",
        "meta_mean_motion": 14.7157503,
        "meta_eccentricity": 0.00197023,
        "meta_inclination": 99.0655,
        "meta_ra_of_asc_node": 263.5806,
        "meta_arg_of_pericenter": 209.3222,
        "meta_mean_anomaly": 150.6878,
        "meta_ephemeris_type": 0,
        "meta_classification_type": "U",
        "meta_norad_cat_id": 31296,
        "meta_element_set_no": 999,
        "meta_rev_at_epoch": 97375,
        "meta_bstar": 0.0033359445,
        "meta_mean_motion_dot": 0.00020799,
        "meta_mean_motion_ddot": 0,
        "tle_line1": "1 31296U 99025BPE 25348.48412465  .00020799  00000+0  33359-2 0  9993",
        "tle_line2": "2 31296  99.0655 263.5806 0019702 209.3222 150.6878 14.71575030973755"
      },
      "geometry": {
        "type": "Point",
        "coordinates": [
          98.62713085493515,
          55.644444723146314
        ]
      }
    },
    {
      "type": "Feature",
      "properties": {
        "norad_id": 31297,
        "name": "FENGYUN 1C DEB",
        "group": "fengyun-1c-debris",
        "lat": 73.05778720329772,
        "lon": 95.89482613466821,
        "alt_km": 616.8531537564004,
        "timestamp": "2025-12-15T20:48:54.165455+00:00",
        "meta_object_name": "FENGYUN 1C DEB",
        "meta_object_id": "1999-025BPF",
        "meta_epoch": "2025-12-14T20:26:35.982240",
        "meta_mean_motion": 14.57089177,
        "meta_eccentricity": 0.01397089,
        "meta_inclination": 98.9337,
        "meta_ra_of_asc_node": 125.8955,
        "meta_arg_of_pericenter": 116.47,
        "meta_mean_anomaly": 36.395,
        "meta_ephemeris_type": 0,
        "meta_classification_type": "U",
        "meta_norad_cat_id": 31297,
        "meta_element_set_no": 999,
        "meta_rev_at_epoch": 99346,
        "meta_bstar": 0.00033564608,
        "meta_mean_motion_dot": 1.668e-05,
        "meta_mean_motion_ddot": 0,
        "tle_line1": "1 31297U 99025BPF 25348.85180535  .00001668  00000+0  33565-3 0  9999",
        "tle_line2": "2 31297  98.9337 125.8955 0139708 116.4700  36.3950 14.57089177993461"
      },
      "geometry": {
        "type": "Point",
        "coordinates": [
          95.89482613466821,
          73.05778720329772
        ]
      }
    },
    {
      "type": "Feature",
      "properties": {
        "norad_id": 31300,
        "name": "FENGYUN 1C DEB",
        "group": "fengyun-1c-debris",
        "lat": -79.8593769283992,
        "lon": 179.29974926387527,
        "alt_km": 884.5665088172927,
        "timestamp": "2025-12-15T20:48:54.165466+00:00",
        "meta_object_name": "FENGYUN 1C DEB",
        "meta_object_id": "1999-025BPJ",
        "meta_epoch": "2025-12-14T17:07:07.921632",
        "meta_mean_motion": 14.15138469,
        "meta_eccentricity": 0.00601893,
        "meta_inclination": 99.5426,
        "meta_ra_of_asc_node": 68.1992,
        "meta_arg_of_pericenter": 54.6131,
        "meta_mean_anomaly": 96.4609,
        "meta_ephemeris_type": 0,
        "meta_classification_type": "U",
        "meta_norad_cat_id": 31300,
        "meta_element_set_no": 999,
        "meta_rev_at_epoch": 96202,
        "meta_bstar": 0.0011376264,
        "meta_mean_motion_dot": 2.197e-05,
        "meta_mean_motion_ddot": 0,
        "tle_line1": "1 31300U 99025BPJ 25348.71328613  .00002197  00000+0  11376-2 0  9993",
        "tle_line2": "2 31300  99.5426  68.1992 0060189  54.6131  96.4609 14.15138469962028"
      },
      "geometry": {
        "type": "Point",
        "coordinates": [
          179.29974926387527,
          -79.8593769283992
        ]
      }
    }
  ]
}